NORAD_CAT_ID,OBJECT_NAME,OBJECT_TYPE,EPOCH,MEAN_MOTION,ECCENTRICITY,INCLINATION,RA_OF_ASC_NODE,ARG_OF_PERICENTER,MEAN_ANOMALY,BSTAR,MEAN_MOTION_DOT,MEAN_MOTION_DDOT,TLE_LINE0,TLE_LINE1,TLE_LINE2,SEMIMAJOR_AXIS,PERIOD,APOGEE,PERIGEE,DECAYED
51129.0,STARLINK-3396,PAYLOAD,2023-09-19 13:43:28,15.08849883,0.0001434,53.2186,28.886,104.5088,255.6063,0.00012783,1.748e-05,0.0,0 STARLINK-3396,1 51129U 22005AB  23262.57185846  .00001748  00000-0  12783-3 0  9990,2 51129  53.2186  28.8860 0001434 104.5088 255.6063 15.08849883 93671,6917.85,95.437,540.707,538.723,0.0
51129.0,STARLINK-3396,PAYLOAD,2023-09-20 11:58:53,15.08825241,0.0001733,53.2192,24.721,125.2785,234.8369,-0.00013038,-2.362e-05,0.0,0 STARLINK-3396,1 51129U 22005AB  23263.49923480 -.00002362  00000-0 -13038-3 0  9995,2 51129  53.2192  24.7210 0001733 125.2785 234.8369 15.08825241 93814,6917.926,95.438,540.989,538.592,0.0
51129.0,STARLINK-3396,PAYLOAD,2023-09-20 13:34:17,15.08823702,0.0001738,53.2189,24.4245,123.1703,236.9456,-0.00014515,-2.596e-05,0.0,0 STARLINK-3396,1 51129U 22005AB  23263.56547653 -.00002596  00000-0 -14515-3 0  9997,2 51129  53.2189  24.4245 0001738 123.1703 236.9456 15.08823702 92692,6917.93,95.439,540.998,538.593,0.0
51129.0,STARLINK-3396,PAYLOAD,2023-09-20 15:09:40,15.08824096,0.0001371,53.2179,24.1275,112.0719,248.0419,-0.00018454,-3.222e-05,0.0,0 STARLINK-3396,1 51129U 22005AB  23263.63171704 -.00003222  00000-0 -18454-3 0  9998,2 51129  53.2179  24.1275 0001371 112.0719 248.0419 15.08824096 92700,6917.929,95.439,540.742,538.846,0.0
51129.0,STARLINK-3396,PAYLOAD,2023-09-21 08:38:54,15.08837447,0.0001029,53.2176,20.8586,96.6343,263.4767,-1.7266e-05,-5.63e-06,0.0,0 STARLINK-3396,1 51129U 22005AB  23264.36035298 -.00000563  00000-0 -17266-4 0  9992,2 51129  53.2176  20.8586 0001029  96.6343 263.4767 15.08837447 93943,6917.888,95.438,540.465,539.041,0.0
51129.0,STARLINK-3396,PAYLOAD,2023-09-21 13:25:03,15.08846275,0.0001129,53.2177,19.9677,104.6694,255.4424,0.00013789,1.908e-05,0.0,0 STARLINK-3396,1 51129U 22005AB  23264.55906958  .00001908  00000-0  13789-3 0  9990,2 51129  53.2177  19.9677 0001129 104.6694 255.4424 15.08846275 92842,6917.861,95.437,540.507,538.945,0.0
51129.0,STARLINK-3396,PAYLOAD,2023-09-22 08:29:41,15.08843035,0.0001436,53.2186,16.398,118.0531,242.0607,0.00033383,5.029e-05,0.0,0 STARLINK-3396,1 51129U 22005AB  23265.35395136  .00005029  00000-0  33383-3 0  9999,2 51129  53.2186  16.3980 0001436 118.0531 242.0607 15.08843035 94095,6917.871,95.437,540.73,538.743,0.0
51129.0,STARLINK-3396,PAYLOAD,2023-09-22 13:15:50,15.08845003,0.0001345,53.2184,15.5057,114.4192,245.6941,0.00030142,4.513e-05,0.0,0 STARLINK-3396,1 51129U 22005AB  23265.55267041  .00004513  00000-0  30142-3 0  9991,2 51129  53.2184  15.5057 0001345 114.4192 245.6941 15.08845003 92995,6917.865,95.437,540.661,538.8,0.0
51129.0,STARLINK-3396,PAYLOAD,2023-09-22 16:26:36,15.0884867,0.0001263,53.218,14.9108,107.0399,253.0731,0.00038905,5.911e-05,0.0,0 STARLINK-3396,1 51129U 22005AB  23265.68514794  .00005911  00000-0  38905-3 0  9993,2 51129  53.2180  14.9108 0001263 107.0399 253.0731 15.08848670 93014,6917.854,95.437,540.593,538.845,0.0
51129.0,STARLINK-3396,PAYLOAD,2023-09-23 00:23:32,15.08841832,0.000129,53.218,13.4251,99.2299,260.8839,5.8397e-05,6.42e-06,0.0,0 STARLINK-3396,1 51129U 22005AB  23266.01635125  .00000642  00000-0  58397-4 0  9997,2 51129  53.2180  13.4251 0001290  99.2299 260.8839 15.08841832 94196,6917.875,95.437,540.632,538.847,0.0
51129.0,STARLINK-3396,PAYLOAD,2023-09-23 13:06:37,15.08847508,0.0001069,53.2176,11.0455,104.8115,255.2995,2.4034e-05,9.5e-07,0.0,0 STARLINK-3396,1 51129U 22005AB  23266.54627119  .00000095  00000-0  24034-4 0  9992,2 51129  53.2176  11.0455 0001069 104.8115 255.2995 15.08847508 93146,6917.857,95.437,540.462,538.983,0.0
51129.0,STARLINK-3396,PAYLOAD,2023-09-23 16:17:23,15.08852693,0.0001119,53.2173,10.4502,102.6135,257.4982,9.7281e-05,1.261e-05,0.0,0 STARLINK-3396,1 51129U 22005AB  23266.67874394  .00001261  00000-0  97281-4 0  9995,2 51129  53.2173  10.4502 0001119 102.6135 257.4982 15.08852693 94291,6917.842,95.437,540.481,538.932,0.0
51129.0,STARLINK-3396,PAYLOAD,2023-09-24 06:35:51,15.08849384,0.0001091,53.2179,7.7728,96.528,263.5836,4.3022e-05,3.97e-06,0.0,0 STARLINK-3396,1 51129U 22005AB  23267.27490344  .00000397  00000-0  43022-4 0  9994,2 51129  53.2179   7.7728 0001091  96.5280 263.5836 15.08849384 94386,6917.852,95.437,540.471,538.962,0.0
51129.0,STARLINK-3396,PAYLOAD,2023-09-24 12:57:23,15.08858501,0.0001333,53.2183,6.5853,94.8658,265.2486,0.00019364,2.797e-05,0.0,0 STARLINK-3396,1 51129U 22005AB  23267.53985749  .00002797  00000-0  19364-3 0  9998,2 51129  53.2183   6.5853 0001333  94.8658 265.2486 15.08858501 93296,6917.824,95.436,540.611,538.767,0.0
51129.0,STARLINK-3396,PAYLOAD,2023-09-25 06:26:38,15.08843766,0.0001228,53.2173,3.3136,113.1054,247.0068,0.00019335,2.791e-05,0.0,0 STARLINK-3396,1 51129U 22005AB  23268.26850447  .00002791  00000-0  19335-3 0  9997,2 51129  53.2173   3.3136 0001228 113.1054 247.0068 15.08843766 94531,6917.869,95.437,540.583,538.884,0.0
51129.0,STARLINK-3396,PAYLOAD,2023-09-25 12:48:11,15.08844944,0.0001252,53.2176,2.1232,109.2816,250.8311,7.8835e-05,9.67e-06,0.0,0 STARLINK-3396,1 51129U 22005AB  23268.53346301  .00000967  00000-0  78835-4 0  9990,2 51129  53.2176   2.1232 0001252 109.2816 250.8311 15.08844944 93448,6917.865,95.437,540.596,538.864,0.0
51129.0,STARLINK-3396,PAYLOAD,2023-09-26 09:28:11,15.08854528,0.0001309,53.2182,358.2583,110.3398,249.7734,0.00022065,3.227e-05,0.0,0 STARLINK-3396,1 51129U 22005AB  23269.39457660  .00003227  00000-0  22065-3 0  9991,2 51129  53.2182 358.2583 0001309 110.3398 249.7734 15.08854528 94705,6917.836,95.437,540.607,538.795,0.0
51129.0,STARLINK-3396,PAYLOAD,2023-09-26 12:38:57,15.08853899,0.0001211,53.2174,357.6622,112.0616,248.0505,0.00020849,3.033e-05,0.0,0 STARLINK-3396,1 51129U 22005AB  23269.52705611  .00003033  00000-0  20849-3 0  9991,2 51129  53.2174 357.6622 0001211 112.0616 248.0505 15.08853899 93591,6917.838,95.437,540.541,538.865,0.0
51129.0,STARLINK-3396,PAYLOAD,2023-09-27 09:18:59,15.08831109,0.0001326,53.2174,353.7969,99.4241,260.6901,-5.1774e-05,-1.112e-05,0.0,0 STARLINK-3396,1 51129U 22005AB  23270.38819035 -.00001112  00000-0 -51774-4 0  9993,2 51129  53.2174 353.7969 0001326  99.4241 260.6901 15.08831109 94851,6917.908,95.438,540.69,538.855,0.0
51129.0,STARLINK-3396,PAYLOAD,2023-09-27 12:29:45,15.08830293,0.0001239,53.2171,353.2031,99.6504,260.4628,-3.857e-05,-9.01e-06,0.0,0 STARLINK-3396,1 51129U 22005AB  23270.52067093 -.00000901  00000-0 -38570-4 0  9992,2 51129  53.2171 353.2031 0001239  99.6504 260.4628 15.08830293 93744,6917.91,95.438,540.632,538.918,0.0
51129.0,STARLINK-3396,PAYLOAD,2023-09-28 10:45:10,15.08835022,0.0001546,53.2176,349.042,101.2361,258.8805,0.00020158,2.921e-05,0.0,0 STARLINK-3396,1 51129U 22005AB  23271.44803675  .00002921  00000-0  20158-3 0  9992,2 51129  53.2176 349.0420 0001546 101.2361 258.8805 15.08835022 95011,6917.896,95.438,540.83,538.691,0.0
51129.0,STARLINK-3396,PAYLOAD,2023-09-29 10:35:57,15.08836433,0.0001603,53.2176,344.5814,101.4004,258.7168,0.00019174,2.765e-05,0.0,0 STARLINK-3396,1 51129U 22005AB  23272.44164206  .00002765  00000-0  19174-3 0  9995,2 51129  53.2176 344.5814 0001603 101.4004 258.7168 15.08836433 94037,6917.891,95.438,540.865,538.647,0.0
51129.0,STARLINK-3396,PAYLOAD,2023-09-30 10:26:44,15.08853753,0.0001797,53.2174,340.1201,109.3802,250.7385,0.0003674,5.566e-05,0.0,0 STARLINK-3396,1 51129U 22005AB  23273.43523372  .00005566  00000-0  36740-3 0  9998,2 51129  53.2174 340.1201 0001797 109.3802 250.7385 15.08853753 95313,6917.838,95.437,540.946,538.46,0.0
51129.0,STARLINK-3396,PAYLOAD,2023-09-30 21:34:26,15.08851331,0.0001627,53.2168,338.039,104.9684,255.1488,0.00021216,3.091e-05,0.0,0 STARLINK-3396,1 51129U 22005AB  23273.89891243  .00003091  00000-0  21216-3 0  9996,2 51129  53.2168 338.0390 0001627 104.9684 255.1488 15.08851331 95382,6917.846,95.437,540.836,538.585,0.0
51129.0,STARLINK-3396,PAYLOAD,2023-10-01 11:52:54,15.08850173,0.0001546,53.216,335.3648,101.6264,258.4902,0.0001861,2.676e-05,0.0,0 STARLINK-3396,1 51129U 22005AB  23274.49507083  .00002676  00000-0  18610-3 0  9991,2 51129  53.2160 335.3648 0001546 101.6264 258.4902 15.08850173 94343,6917.849,95.437,540.784,538.645,0.0
51129.0,STARLINK-3396,PAYLOAD,2023-10-01 21:25:13,15.08834409,0.0001759,53.217,333.5776,75.5563,284.5624,-0.00021867,-3.766e-05,0.0,0 STARLINK-3396,1 51129U 22005AB  23274.89251184 -.00003766  00000-0 -21867-3 0  9994,2 51129  53.2170 333.5776 0001759  75.5563 284.5624 15.08834409 94405,6917.897,95.438,540.979,538.546,0.0
51129.0,STARLINK-3396,PAYLOAD,2023-10-02 10:08:18,15.08838082,0.0001563,53.2157,331.1991,89.3365,270.7806,8.4844e-05,1.062e-05,0.0,0 STARLINK-3396,1 51129U 22005AB  23275.42243770  .00001062  00000-0  84844-4 0  9996,2 51129  53.2157 331.1991 0001563  89.3365 270.7806 15.08838082 94487,6917.886,95.438,540.833,538.67,0.0
51129.0,STARLINK-3396,PAYLOAD,2023-10-03 03:37:33,15.08838931,0.0001584,53.2145,327.9281,86.463,273.6544,0.00037724,5.721e-05,0.0,0 STARLINK-3396,1 51129U 22005AB  23276.15108213  .00005721  00000-0  37724-3 0  9999,2 51129  53.2145 327.9281 0001584  86.4630 273.6544 15.08838931 95727,6917.884,95.438,540.844,538.653,0.0
51129.0,STARLINK-3396,PAYLOAD,2023-10-03 09:59:05,15.08845376,0.0001485,53.2156,326.7382,87.9295,272.1867,0.00057072,8.808e-05,0.0,0 STARLINK-3396,1 51129U 22005AB  23276.41604130  .00008808  00000-0  57072-3 0  9994,2 51129  53.2156 326.7382 0001485  87.9295 272.1867 15.08845376 94633,6917.864,95.437,540.756,538.702,0.0
51129.0,STARLINK-3396,PAYLOAD,2023-10-04 03:28:20,15.0884044,0.0001759,53.2169,323.4677,94.7408,265.3785,0.00019702,2.849e-05,0.0,0 STARLINK-3396,1 51129U 22005AB  23277.14468339  .00002849  00000-0  19702-3 0  9991,2 51129  53.2169 323.4677 0001759  94.7408 265.3785 15.08840440 95871,6917.879,95.438,540.961,538.527,0.0
